STARLINK-5793           
1 56038U 23042BE  23093.58334491 -.00666011  00000+0 -46581-2 0  9994
2 56038  43.0036 134.1806 0002068 280.8109 279.0737 15.75165291  1308
STARLINK-5795           
1 56039U 23042BF  23093.58334491  .00127344  00000+0  80214-3 0  9996
2 56039  43.0032 134.1766 0002212 289.6427 271.6877 15.75532344  1301
STARLINK-5798           
1 56040U 23042BG  23093.58334491 -.00629468  00000+0 -43777-2 0  9996
2 56040  43.0035 134.1763 0000894 287.6690 274.0058 15.75203702  1308
STARLINK-5800           
1 56041U 23042BH  23093.58334491 -.00652996  00000+0 -45476-2 0  9997
2 56041  43.0031 134.1750 0001009 286.3415 275.7903 15.75235163  1304
FALCON 9 DEB            
1 56042U 23042BJ  23093.01626195  .00300183  40732-4  98177-3 0  9995
2 56042  43.0119 137.2757 0030078  49.2264 311.1214 15.89053998  1498
FALCON 9 DEB            
1 56043U 23042BK  23093.01399476  .00324982  46699-4  10386-2 0  9991
2 56043  43.0094 137.2561 0027511  52.1887 308.1473 15.89621251  1492
FALCON 9 DEB            
1 56044U 23042BL  23093.00748981  .00343623  52034-4  10293-2 0  9990
2 56044  43.0056 137.1975 0026304  42.2923 317.9975 15.90919516  1490
FALCON 9 DEB            
1 56045U 23042BM  23092.81812211  .00324897  47229-4  98464-3 0  9996
2 56045  43.0045 138.3543 0024375  43.9790 316.3020 15.90790467  1462
ONEWEB-0537             
1 56046U 23043A   23093.58334491  .00064054  00000+0  16285-2 0  9999
2 56046  87.4236 139.6301 0012066 237.8826 171.3918 15.39299209  1300
ONEWEB-0538             
1 56047U 23043B   23093.58334491  .00066392  00000+0  16826-2 0  9998
2 56047  87.4250 139.6300 0011780 236.6917 174.6329 15.39391453  1302
ONEWEB-0546             
1 56048U 23043C   23093.58334491  .00000296  00000+0  63441-5 0  9998
2 56048  87.4221 139.6286 0011236 234.5316 182.3334 15.39651778  1301
ONEWEB-0547             
1 56049U 23043D   23093.58334491  .00064750  00000+0  15851-2 0  9993
2 56049  87.4227 139.6242 0007710 225.8272 218.4701 15.40494647  1307
ONEWEB-0548             
1 56050U 23043E   23093.58334491  .00066938  00000+0  17155-2 0  9994
2 56050  87.4251 139.6327 0012024 243.8911 157.2111 15.39043830  1301
ONEWEB-0549             
1 56051U 23043F   23093.58334491  .00067690  00000+0  16688-2 0  9991
2 56051  87.4232 139.6280 0008880 225.5179 211.6980 15.40259995  1309
ONEWEB-0550             
1 56052U 23043G   23093.58334491  .00064606  00000+0  16093-2 0  9996
2 56052  87.4228 139.6261 0010208 226.2957 201.4015 15.39943207  1303
ONEWEB-0551             
1 56053U 23043H   23093.58334491  .00066605  00000+0  17556-2 0  9993
2 56053  87.4258 139.6389 0009999 259.4790 116.4935 15.38203995  1304
ONEWEB-0552             
1 56054U 23043J   23093.58334491  .00064398  00000+0  16139-2 0  9997
2 56054  87.4242 139.6283 0010836 230.8414 191.1239 15.39751741  1304
ONEWEB-0553             
1 56055U 23043K   23093.58334491  .00064129  00000+0  16197-2 0  9994
2 56055  87.4257 139.6297 0011414 234.7673 180.1261 15.39508357  1305
ONEWEB-0554             
1 56056U 23043L   23093.58334491  .00035636  00000+0  89753-3 0  9995
2 56056  87.4253 139.6288 0011044 232.3751 187.2578 15.39692469  1309
ONEWEB-0555             
1 56057U 23043M   23093.58334491  .00063756  00000+0  16362-2 0  9995
2 56057  87.4236 139.6307 0012103 242.6693 157.3197 15.39012181  1301
ONEWEB-0557             
1 56058U 23043N   23093.58334491  .00064125  00000+0  16099-2 0  9994
2 56058  87.4229 139.6282 0010914 231.5574 188.9813 15.39697781  1309
ONEWEB-0558             
1 56059U 23043P   23093.58334491  .00066076  00000+0  16130-2 0  9998
2 56059  87.4240 139.6262 0007389 226.9948 219.7087 15.40578441  1305
ONEWEB-0559             
1 56060U 23043Q   23093.58334491  .00064924  00000+0  15985-2 0  9997
2 56060  87.4230 139.6257 0008701 225.3009 213.3532 15.40311604  1301
ONEWEB-0566             
1 56061U 23043R   23093.58334491  .00064560  00000+0  16066-2 0  9995
2 56061  87.4232 139.6299 0010052 226.2336 202.4321 15.39974278  1300
ONEWEB-0568             
1 56062U 23043S   23093.58334491  .00067078  00000+0  17604-2 0  9992
2 56062  87.4237 139.6320 0010896 257.2838 122.1913 15.38326371  1307
ONEWEB-0574             
1 56063U 23043T   23093.58334491  .00068170  00000+0  16588-2 0  9997
2 56063  87.4204 139.6194 0007260 229.7883 219.5598 15.40668975  1308
ONEWEB-0575             
1 56064U 23043U   23093.58334491  .00063601  00000+0  16629-2 0  9998
2 56064  87.4250 139.6357 0011252 255.3866 127.9375 15.38450655  1309
ONEWEB-0576             
1 56065U 23043V   23093.58334491  .00066475  00000+0  17164-2 0  9996
2 56065  87.4273 139.6366 0012007 248.5029 145.6427 15.38816869  1307
ONEWEB-0577             
1 56066U 23043W   23093.58334491  .00066760  00000+0  17309-2 0  9995
2 56066  87.4263 139.6358 0012011 251.1331 139.1923 15.38688474  1307
ONEWEB-0578             
1 56067U 23043X   23093.58334491  .00067963  00000+0  16769-2 0  9991
2 56067  87.4228 139.6243 0009035 225.7084 210.5148 15.40232635  1306
ONEWEB-0579             
1 56068U 23043Y   23093.58334491  .00065751  00000+0  15907-2 0  9998
2 56068  87.4237 139.6242 0006732 234.0494 220.9771 15.40857290  1302
ONEWEB-0581             
1 56069U 23043Z   23093.58334491  .00063613  00000+0  16517-2 0  9992
2 56069  87.4247 139.6337 0012013 251.8950 137.5137 15.38655569  1303
ONEWEB-0609             
1 56070U 23043AA  23093.58334491  .00067737  00000+0  16473-2 0  9996
2 56070  87.4244 139.6262 0007102 231.2416 219.1404 15.40689601  1302
ONEWEB-0613             
1 56071U 23043AB  23093.58334491  .00066743  00000+0  17287-2 0  9997
2 56071  87.4232 139.6312 0012017 250.2553 141.2691 15.38719769  1309
ONEWEB-0630             
1 56072U 23043AC  23093.58334491  .00066290  00000+0  17084-2 0  9990
2 56072  87.4227 139.6298 0011985 247.4008 148.6762 15.38875610  1301
ONEWEB-0632             
1 56073U 23043AD  23093.58334491  .00072100  00000+0  17429-2 0  9991
2 56073  87.4222 139.6213 0006713 237.0036 219.3841 15.40858748  1303
ONEWEB-0633             
1 56074U 23043AE  23093.58334491  .00065190  00000+0  15800-2 0  9994
2 56074  87.4209 139.6194 0006793 233.1596 220.4009 15.40803309  1305
ONEWEB-0634             
1 56075U 23043AF  23093.58334491  .00067787  00000+0  16546-2 0  9997
2 56075  87.4213 139.6212 0007491 226.0080 220.3869 15.40574485  1300
ONEWEB-0635             
1 56076U 23043AG  23093.58334491  .00066150  00000+0  17003-2 0  9990
2 56076  87.4271 139.6353 0012016 245.4203 153.1757 15.38956440  1303
ONEWEB-0636             
1 56077U 23043AH  23093.58334491  .00066707  00000+0  16520-2 0  9992
2 56077  87.4233 139.6295 0009425 225.8424 207.3584 15.40120941  1306
ONEWEB-0637             
1 56078U 23043AJ  23093.58334491  .00063541  00000+0  16841-2 0  9992
2 56078  87.4244 139.6351 0010203 261.7027 109.6873 15.38042617  1301
ONEWEB-0647             
1 56079U 23043AK  23093.58334491  .00066822  00000+0  16665-2 0  9992
2 56079  87.4231 139.6282 0010343 226.4242 200.0578 15.39897188  1303
ONEWEB-0651             
1 56080U 23043AL  23093.58334491  .00066504  00000+0  16834-2 0  9999
2 56080  87.4226 139.6292 0011530 237.6976 174.8439 15.39430888  1301
ONEWEB-0718             
1 56081U 23043AM  23093.58334491  .00064175  00000+0  15926-2 0  9993
2 56081  87.4228 139.6243 0009656 226.0747 205.3540 15.40064308  1309
GSLV R/B                
1 56082U 23043AN  23093.58311413  .00021410  00000+0  57178-3 0  9994
2 56082  87.4183 139.6375 0024287   1.0811 359.0491 15.37674621  1309
COSMOS 2568             
1 56091U 23045A   23092.95673933  .00037114  00000+0  21847-3 0  9996
2 56091  96.4616 183.3244 0011118 278.4782 141.8943 15.78043661   641
SL-4 R/B                
1 56092U 23045B   23093.26024987  .00117161  00000+0  63981-3 0  9997
2 56092  96.4655 183.6282 0013325 267.2515  92.7228 15.79430818   704
STARLINK A              
1 56093U 23046A   23093.66667824 -.00880635  00000+0 -58383-2 0  9990
2 56093  42.9997 234.9666 0004201 268.6381  36.5653 15.76920049  1307
STARLINK B              
1 56094U 23046B   23093.66667824 -.00881510  00000+0 -58191-2 0  9991
2 56094  42.9997 234.9628 0004433 268.8924  37.7165 15.77014631  1301
STARLINK C              
1 56095U 23046C   23093.66667824 -.00897765  00000+0 -59630-2 0  9990
2 56095  42.9997 234.9652 0001762 270.4416  35.1209 15.76953271  1308
STARLINK D              
1 56096U 23046D   23093.66667824 -.00882707  00000+0 -58245-2 0  9992
2 56096  42.9997 234.9620 0003529 269.0067  37.9432 15.77039380  1308
STARLINK E              
1 56097U 23046E   23093.66667824  .00218679  24741-4  83601-3 0  9990
2 56097  43.0015 234.8032 0026966   3.7254   5.8591 15.86171444  1307
STARLINK F              
1 56098U 23046F   23093.66667824 -.00881352  00000+0 -58243-2 0  9997
2 56098  42.9997 234.9637 0004458 268.8963  37.3738 15.76990010  1300
STARLINK G              
1 56099U 23046G   23093.66667824 -.00882499  00000+0 -58100-2 0  9993
2 56099  42.9997 234.9606 0003599 269.0057  38.6174 15.77088140  1300
STARLINK H              
1 56100U 23046H   23093.66667824 -.00882943  00000+0 -58074-2 0  9990
2 56100  42.9997 234.9595 0003492 269.0129  38.9572 15.77111812  1300
STARLINK J              
1 56101U 23046J   23093.66667824 -.00883055  00000+0 -58020-2 0  9997
2 56101  42.9997 234.9589 0003431 269.0021  39.3018 15.77136371  1305
STARLINK K              
1 56102U 23046K   23093.66667824 -.00881348  00000+0 -58069-2 0  9994
2 56102  42.9997 234.9613 0003963 268.8481  38.4370 15.77063195  1305
STARLINK L              
1 56103U 23046L   23093.66667824 -.00880901  00000+0 -57715-2 0  9996
2 56103  42.9998 234.9573 0004299 268.8884  40.0992 15.77182104  1303
STARLINK M              
1 56104U 23046M   23093.66667824 -.00881446  00000+0 -57813-2 0  9991
2 56104  42.9997 234.9579 0004321 268.9535  39.6895 15.77159305  1302
